{
"type": "FeatureCollection",
"name": "slices_polygons_clean",
"crs": { "type": "name", "properties": { "name": "urn:ogc:def:crs:OGC:1.3:CRS84" } },
"features": [
{ "type": "Feature", "properties": { "slice": "0", "z_mean": 10.16099047029074 }, "geometry": { "type": "MultiPolygon", "coordinates": [ [ [ [ 86.407384460751913, 82.099967873617558 ], [ 86.40459998550412, 82.105899989795674 ], [ 86.40808343240198, 82.10520330909182 ], [ 86.407384460751913, 82.099967873617558 ] ] ], [ [ [ 86.411192013475727, 82.128487194248507 ], [ 86.409400007152527, 82.130100012016285 ], [ 86.411629743342374, 82.131765877256299 ], [ 86.411192013475727, 82.128487194248507 ] ] ], [ [ [ 86.712706362446184, 83.921490556202258 ], [ 86.715400000296526, 83.924699991321546 ], [ 86.755000001013244, 83.886999993896453 ], [ 86.712706362446184, 83.921490556202258 ] ] ], [ [ [ 86.661799988174408, 83.916699991226167 ], [ 86.670500001335114, 83.937999992942778 ], [ 86.687800011062592, 83.922699942970254 ], [ 86.661799988174408, 83.916699991226167 ] ] ], [ [ [ 86.203299997770756, 84.35040025634764 ], [ 86.239200001978844, 84.512999981021864 ], [ 86.270327511274488, 84.464203604125601 ], [ 86.307300007367104, 84.472399979209882 ], [ 86.270000001811951, 84.490200012302381 ], [ 86.254998810410072, 84.521971686717805 ], [ 86.299000000977486, 84.479899972057325 ], [ 86.314499995136231, 84.507699995613081 ], [ 86.377199998521775, 84.403399958991983 ], [ 86.337910079290921, 84.375861622113163 ], [ 86.379299989366501, 84.331900015258768 ], [ 86.392700007581681, 84.389699802398653 ], [ 86.463600000762895, 84.254799991226164 ], [ 86.406599989557236, 84.33070005455015 ], [ 86.385089844329485, 84.307933386031408 ], [ 86.203299997770756, 84.35040025634764 ] ] ], [ [ [ 86.220826397396792, 84.597253398814345 ], [ 86.267327251846538, 84.560751242096359 ], [ 86.292677269103748, 84.527185655281045 ], [ 86.220826397396792, 84.597253398814345 ] ] ], [ [ [ 86.080599970054593, 84.734699993705732 ], [ 86.147800000780776, 84.727800040817243 ], [ 86.109899999970168, 84.698400049781768 ], [ 86.173713707866497, 84.701042496995271 ], [ 86.143099999451607, 84.780900030708281 ], [ 86.22039999666211, 84.664299994087202 ], [ 86.1122999996185, 84.683399944877607 ], [ 86.080599970054593, 84.734699993705732 ] ] ], [ [ [ 86.055500082015953, 84.731099977874734 ], [ 86.059400028419461, 84.744200020408613 ], [ 86.075661725725041, 84.749252306463376 ], [ 86.055500082015953, 84.731099977874734 ] ] ], [ [ [ 86.094562411683071, 84.766269344707439 ], [ 86.087799972724881, 84.773600011444074 ], [ 86.103100025939895, 84.785900401306122 ], [ 86.094562411683071, 84.766269344707439 ] ] ], [ [ [ 87.558522794731061, 79.39758219722043 ], [ 87.558499997472751, 79.397699982929211 ], [ 87.561535093990145, 79.39879261912273 ], [ 87.558522794731061, 79.39758219722043 ] ] ], [ [ [ 87.755959208190021, 79.476917395554835 ], [ 87.755299990987751, 79.477899999427777 ], [ 87.762735106246623, 79.479640131481801 ], [ 87.755959208190021, 79.476917395554835 ] ] ], [ [ [ 87.947899998885362, 80.307300001978859 ], [ 87.967399990177128, 80.297199994921669 ], [ 87.926099991416905, 80.279699996709795 ], [ 87.947899998885362, 80.307300001978859 ] ] ], [ [ [ 87.991199997973411, 80.340100005865082 ], [ 87.918199991798375, 80.324100003242478 ], [ 87.988486619724014, 80.347290457832187 ], [ 87.991199997973411, 80.340100005865082 ] ] ], [ [ [ 88.619199996399857, 81.127699993944148 ], [ 88.567199999052249, 80.929900013303737 ], [ 88.562603340186101, 80.921309804225046 ], [ 88.619199996399857, 81.127699993944148 ] ] ], [ [ [ 88.255500001621215, 81.850799977970112 ], [ 88.250999999952285, 81.917100001114591 ], [ 88.226460166918741, 82.003913657211271 ], [ 88.272963877870211, 81.907470223999198 ], [ 88.255500001621215, 81.850799977970112 ] ] ], [ [ [ 87.331800000733111, 82.292900003480895 ], [ 87.362904409970952, 82.295726315480934 ], [ 87.32550000025924, 82.273099996137603 ], [ 87.331800000733111, 82.292900003480895 ] ] ], [ [ [ 85.433699971866574, 85.092800005245195 ], [ 86.91060002746579, 85.693100019264207 ], [ 88.393300009679763, 81.958099998521789 ], [ 88.226503086586916, 82.01073178308954 ], [ 88.200399970626805, 82.072899997425054 ], [ 88.220002020755445, 82.017307121419407 ], [ 87.427399998521778, 82.308799989509566 ], [ 87.744499986982319, 83.299699998974774 ], [ 87.669210775233779, 83.311544579318479 ], [ 87.579099988555868, 83.682999999573795 ], [ 86.108672428576696, 85.198010920778188 ], [ 85.660399979782071, 84.788200049972502 ], [ 86.057699984741163, 84.060400008535368 ], [ 86.125299999886707, 83.968899994468657 ], [ 86.226500003063649, 83.937099992608992 ], [ 86.334300002479523, 83.982900038146951 ], [ 86.35741986503858, 84.084859299293768 ], [ 86.598599991226166, 83.976000010347335 ], [ 86.737000001788118, 83.81399999496935 ], [ 86.816000005626648, 83.590500011825526 ], [ 86.85930000078676, 83.742799996709792 ], [ 86.932500025653809, 83.746699943923915 ], [ 87.005499987125376, 83.685300000323338 ], [ 86.406621264052774, 83.245901265310408 ], [ 86.816399997293928, 83.107599999338362 ], [ 86.442199996137589, 82.382200002861012 ], [ 86.377699992084473, 82.790000006341913 ], [ 85.433699971866574, 85.092800005245195 ] ] ] ] } },
{ "type": "Feature", "properties": { "slice": "1", "z_mean": 12.01614035167858 }, "geometry": { "type": "MultiPolygon", "coordinates": [ [ [ [ 87.590900009489033, 79.411100001144391 ], [ 87.60097432702463, 79.413553121569862 ], [ 87.591886904554826, 79.409835541266901 ], [ 87.590900009489033, 79.411100001144391 ] ] ], [ [ [ 87.650299987220734, 79.434599952316276 ], [ 87.664680830023386, 79.439614861464293 ], [ 87.656711625402636, 79.436354733718858 ], [ 87.650299987220734, 79.434599952316276 ] ] ], [ [ [ 87.176586463519783, 80.145960453419548 ], [ 87.500600000834424, 79.372199983406048 ], [ 87.471700003361676, 79.350199998426419 ], [ 87.176586463519783, 80.145960453419548 ] ] ], [ [ [ 86.238899996900528, 82.653400003695452 ], [ 86.23918490062529, 82.64513793365056 ], [ 86.230958555524836, 82.667069939349545 ], [ 86.238899996900528, 82.653400003695452 ] ] ], [ [ [ 86.206751079215877, 82.731608747518123 ], [ 86.11447613684966, 82.977620133758194 ], [ 86.162699999684065, 82.886899992609003 ], [ 86.206751079215877, 82.731608747518123 ] ] ], [ [ [ 86.1171999996766, 82.991199984931924 ], [ 86.122299999394983, 82.982400045394868 ], [ 86.114186565834061, 82.978392150138106 ], [ 86.1171999996766, 82.991199984931924 ] ] ], [ [ [ 86.112500000210076, 83.003600016021707 ], [ 86.107636648949907, 82.995854682122513 ], [ 86.102262386240568, 83.010182838664676 ], [ 86.112500000210076, 83.003600016021707 ] ] ], [ [ [ 85.547000134277312, 84.386100100707992 ], [ 85.614799982738447, 84.397399991130811 ], [ 85.604200011920881, 84.430399983501403 ], [ 85.507299951553307, 84.478599920654275 ], [ 85.472899979782071, 84.65510001716612 ], [ 85.36690000338551, 84.830600052452056 ], [ 85.403999990653944, 84.865700035667388 ], [ 85.30449988708493, 85.007300003337846 ], [ 85.775699905395456, 85.251800014543505 ], [ 86.990499994182542, 85.744899972248064 ], [ 86.997999987029999, 85.367699994611726 ], [ 86.427599987411455, 85.321100010442706 ], [ 86.40449999871251, 85.356800003814683 ], [ 85.895500010681118, 84.432100027179686 ], [ 85.951299971771206, 84.302400022125212 ], [ 85.881699985694851, 84.255899994945494 ], [ 85.824600032806359, 84.284199967765772 ], [ 86.087243478238818, 83.050224287432627 ], [ 85.653700045585595, 84.116899981880167 ], [ 85.688299945831261, 84.214100017929056 ], [ 85.633204599505802, 84.182021308567968 ], [ 85.584100014400462, 84.296699970340711 ], [ 85.609499997329678, 84.366199999427778 ], [ 85.565800017547573, 84.346500008678419 ], [ 85.547000134277312, 84.386100100707992 ] ] ], [ [ [ 87.082900008583053, 85.325499995517703 ], [ 87.069899997138961, 85.355900003480897 ], [ 87.12288267649167, 85.327809029539949 ], [ 87.082900008583053, 85.325499995517703 ] ] ], [ [ [ 87.757700001811955, 79.477899999427763 ], [ 87.758584514036173, 79.478104833971145 ], [ 87.757683599759829, 79.477721399381949 ], [ 87.757700001811955, 79.477899999427763 ] ] ], [ [ [ 87.973099982357013, 79.552599997329693 ], [ 87.976600026702855, 79.566300005722027 ], [ 87.982124190188188, 79.558141708305044 ], [ 87.973099982357013, 79.552599997329693 ] ] ], [ [ [ 88.042099988079045, 79.594599993038159 ], [ 88.079200005149815, 79.607199997711163 ], [ 88.081896439078861, 79.596890502981992 ], [ 88.042099988079045, 79.594599993038159 ] ] ], [ [ [ 88.100800005507438, 79.605500005984283 ], [ 88.107062967198829, 79.607065746407145 ], [ 88.090096877117901, 79.600206075668154 ], [ 88.100800005507438, 79.605500005984283 ] ] ], [ [ [ 88.112700020885441, 79.610100002098065 ], [ 88.116814171496259, 79.611008319532118 ], [ 88.108104378337757, 79.607486806149424 ], [ 88.112700020885441, 79.610100002098065 ] ] ], [ [ [ 88.148600017642949, 79.623800010490399 ], [ 88.134600019073446, 79.629500002670255 ], [ 88.15299999506469, 79.635400005483618 ], [ 88.148600017642949, 79.623800010490399 ] ] ], [ [ [ 88.249404411078459, 79.675404923351678 ], [ 88.274109486724228, 79.685302226208819 ], [ 88.250524058355737, 79.675550965619848 ], [ 88.249404411078459, 79.675404923351678 ] ] ], [ [ [ 88.371152410477023, 79.72345545717873 ], [ 88.353513488181648, 79.716585940838129 ], [ 88.352000078582734, 79.71630008659362 ], [ 88.371152410477023, 79.72345545717873 ] ] ], [ [ [ 89.068153218028158, 80.185914337168185 ], [ 89.029617217365512, 80.136502439168325 ], [ 89.05400001029966, 80.178300001323208 ], [ 89.068153218028158, 80.185914337168185 ] ] ] ] } },
{ "type": "Feature", "properties": { "slice": "2", "z_mean": 13.664252902584456 }, "geometry": { "type": "MultiPolygon", "coordinates": [ [ [ [ 86.33506742552963, 85.284411388264701 ], [ 86.337200006866425, 85.231300010251985 ], [ 86.433500012779206, 85.316499992179857 ], [ 86.402400007867783, 85.341099991369219 ], [ 86.412300011539429, 85.432499988841997 ], [ 86.568399986648515, 85.399799986648532 ], [ 86.803999981307939, 85.182299985456453 ], [ 86.864200016880005, 84.91149999843833 ], [ 86.828900000476793, 84.765800028419463 ], [ 86.71029998960492, 84.584899991130797 ], [ 86.435699990415543, 84.450899987792951 ], [ 86.17670000197883, 84.482400225830062 ], [ 86.33506742552963, 85.284411388264701 ] ] ], [ [ [ 86.028999990653958, 85.156000002193423 ], [ 86.163200000697344, 84.487199991321546 ], [ 85.999500087737999, 84.59650005378721 ], [ 85.904100007247891, 84.738600044822661 ], [ 85.856899983119916, 84.888400000426159 ], [ 85.867299980354275, 85.065600006747232 ], [ 86.070699996185269, 85.361799999046312 ], [ 86.329231370492806, 85.429756805958874 ], [ 86.028999990653958, 85.156000002193423 ] ] ] ] } },
{ "type": "Feature", "properties": { "slice": "3", "z_mean": 14.827638035014814 }, "geometry": { "type": "Polygon", "coordinates": [ [ [ 86.413552411676378, 85.314463996759116 ], [ 86.750099977874726, 84.667900370788558 ], [ 86.527699998044923, 84.500599995040872 ], [ 86.273099994683221, 84.480399995422346 ], [ 86.043299935913041, 84.5884002304077 ], [ 85.924000076293908, 84.730300083541849 ], [ 85.864300064086876, 85.049199997353526 ], [ 85.941800320434538, 85.252800001668916 ], [ 86.111700000172078, 85.406400008964525 ], [ 86.294399997615798, 85.466800018119784 ], [ 86.519300004863709, 85.438499971199022 ], [ 86.712099990272492, 85.31210000710486 ], [ 86.83309998216626, 85.102899997401209 ], [ 86.846699973964647, 84.90390000017284 ], [ 86.780299982452362, 84.714899883270235 ], [ 86.413552411676378, 85.314463996759116 ] ] ] } },
{ "type": "Feature", "properties": { "slice": "4", "z_mean": 15.051417039847411 }, "geometry": { "type": "Polygon", "coordinates": [ [ [ 86.283500006818784, 84.54159955902098 ], [ 86.39847757033121, 85.274077442780069 ], [ 86.3548000067711, 85.199000014829636 ], [ 86.037300004291524, 85.135000004339204 ], [ 86.276400005841268, 84.54319999284742 ], [ 86.108299999894214, 84.599300003719307 ], [ 85.974899991083149, 84.717500007820107 ], [ 85.897800012159351, 84.872099972438804 ], [ 85.885299994277943, 85.087699993419648 ], [ 86.024599975776681, 85.335600002574907 ], [ 86.318400001549733, 85.462299986648546 ], [ 86.434599986696242, 85.458200021553026 ], [ 86.59769999451639, 85.39319999775887 ], [ 86.734999999597676, 85.252700003600111 ], [ 86.799199996709831, 85.091299994754777 ], [ 86.79629999977351, 84.908100000488744 ], [ 86.636900028610228, 84.646000004482261 ], [ 86.467600008869169, 84.558599978065473 ], [ 86.283500006818784, 84.54159955902098 ] ] ] } }
]
}
